<?xml version="1.0" encoding="UTF-8"?>
<ndm xmlns:xsi="http://www.w3.org/2001/XMLSchema-instance" xsi:noNamespaceSchemaLocation="https://sanaregistry.org/r/ndmxml_unqualified/ndmxml-2.0.0-master-2.0.xsd">
<omm id="CCSDS_OMM_VERS" version="2.0">
<header><CREATION_DATE/><ORIGINATOR/></header><body><segment><metadata><OBJECT_NAME>KUIPER-00136</OBJECT_NAME><OBJECT_ID>2025-228R</OBJECT_ID><CENTER_NAME>EARTH</CENTER_NAME><REF_FRAME>TEME</REF_FRAME><TIME_SYSTEM>UTC</TIME_SYSTEM><MEAN_ELEMENT_THEORY>SGP4</MEAN_ELEMENT_THEORY></metadata><data><meanElements><EPOCH>2025-12-18T16:00:00.999936</EPOCH><MEAN_MOTION>15.27929162</MEAN_MOTION><ECCENTRICITY>.00064354</ECCENTRICITY><INCLINATION>51.8844</INCLINATION><RA_OF_ASC_NODE>352.1792</RA_OF_ASC_NODE><ARG_OF_PERICENTER>44.1283</ARG_OF_PERICENTER><MEAN_ANOMALY>343.2817</MEAN_ANOMALY></meanElements><tleParameters><EPHEMERIS_TYPE>0</EPHEMERIS_TYPE><CLASSIFICATION_TYPE>U</CLASSIFICATION_TYPE><NORAD_CAT_ID>65962</NORAD_CAT_ID><ELEMENT_SET_NO>999</ELEMENT_SET_NO><REV_AT_EPOCH>130</REV_AT_EPOCH><BSTAR>-.56154949E-3</BSTAR><MEAN_MOTION_DOT>-.15856E-3</MEAN_MOTION_DOT><MEAN_MOTION_DDOT>0</MEAN_MOTION_DDOT></tleParameters></data></segment></body></omm>
<omm id="CCSDS_OMM_VERS" version="2.0">
<header><CREATION_DATE/><ORIGINATOR/></header><body><segment><metadata><OBJECT_NAME>KUIPER-00137</OBJECT_NAME><OBJECT_ID>2025-228S</OBJECT_ID><CENTER_NAME>EARTH</CENTER_NAME><REF_FRAME>TEME</REF_FRAME><TIME_SYSTEM>UTC</TIME_SYSTEM><MEAN_ELEMENT_THEORY>SGP4</MEAN_ELEMENT_THEORY></metadata><data><meanElements><EPOCH>2025-12-18T10:45:25.816608</EPOCH><MEAN_MOTION>15.36425589</MEAN_MOTION><ECCENTRICITY>.00094595</ECCENTRICITY><INCLINATION>51.8800</INCLINATION><RA_OF_ASC_NODE>353.0719</RA_OF_ASC_NODE><ARG_OF_PERICENTER>34.7765</ARG_OF_PERICENTER><MEAN_ANOMALY>325.3838</MEAN_ANOMALY></meanElements><tleParameters><EPHEMERIS_TYPE>0</EPHEMERIS_TYPE><CLASSIFICATION_TYPE>U</CLASSIFICATION_TYPE><NORAD_CAT_ID>65963</NORAD_CAT_ID><ELEMENT_SET_NO>999</ELEMENT_SET_NO><REV_AT_EPOCH>1129</REV_AT_EPOCH><BSTAR>.88383299E-2</BSTAR><MEAN_MOTION_DOT>.333255E-2</MEAN_MOTION_DOT><MEAN_MOTION_DDOT>0</MEAN_MOTION_DDOT></tleParameters></data></segment></body></omm>
<omm id="CCSDS_OMM_VERS" version="2.0">
<header><CREATION_DATE/><ORIGINATOR/></header><body><segment><metadata><OBJECT_NAME>KUIPER-00138</OBJECT_NAME><OBJECT_ID>2025-228T</OBJECT_ID><CENTER_NAME>EARTH</CENTER_NAME><REF_FRAME>TEME</REF_FRAME><TIME_SYSTEM>UTC</TIME_SYSTEM><MEAN_ELEMENT_THEORY>SGP4</MEAN_ELEMENT_THEORY></metadata><data><meanElements><EPOCH>2025-12-18T09:17:16.472544</EPOCH><MEAN_MOTION>15.36087894</MEAN_MOTION><ECCENTRICITY>.00081387</ECCENTRICITY><INCLINATION>51.8795</INCLINATION><RA_OF_ASC_NODE>353.3999</RA_OF_ASC_NODE><ARG_OF_PERICENTER>45.9840</ARG_OF_PERICENTER><MEAN_ANOMALY>314.1815</MEAN_ANOMALY></meanElements><tleParameters><EPHEMERIS_TYPE>0</EPHEMERIS_TYPE><CLASSIFICATION_TYPE>U</CLASSIFICATION_TYPE><NORAD_CAT_ID>65964</NORAD_CAT_ID><ELEMENT_SET_NO>999</ELEMENT_SET_NO><REV_AT_EPOCH>1128</REV_AT_EPOCH><BSTAR>.20041948E-3</BSTAR><MEAN_MOTION_DOT>.6778E-4</MEAN_MOTION_DOT><MEAN_MOTION_DDOT>0</MEAN_MOTION_DDOT></tleParameters></data></segment></body></omm>
<omm id="CCSDS_OMM_VERS" version="2.0">
<header><CREATION_DATE/><ORIGINATOR/></header><body><segment><metadata><OBJECT_NAME>KUIPER-00140</OBJECT_NAME><OBJECT_ID>2025-228U</OBJECT_ID><CENTER_NAME>EARTH</CENTER_NAME><REF_FRAME>TEME</REF_FRAME><TIME_SYSTEM>UTC</TIME_SYSTEM><MEAN_ELEMENT_THEORY>SGP4</MEAN_ELEMENT_THEORY></metadata><data><meanElements><EPOCH>2025-12-18T14:16:05.949120</EPOCH><MEAN_MOTION>15.34268381</MEAN_MOTION><ECCENTRICITY>.00091063</ECCENTRICITY><INCLINATION>51.8802</INCLINATION><RA_OF_ASC_NODE>352.5423</RA_OF_ASC_NODE><ARG_OF_PERICENTER>42.2743</ARG_OF_PERICENTER><MEAN_ANOMALY>317.8943</MEAN_ANOMALY></meanElements><tleParameters><EPHEMERIS_TYPE>0</EPHEMERIS_TYPE><CLASSIFICATION_TYPE>U</CLASSIFICATION_TYPE><NORAD_CAT_ID>65965</NORAD_CAT_ID><ELEMENT_SET_NO>999</ELEMENT_SET_NO><REV_AT_EPOCH>1131</REV_AT_EPOCH><BSTAR>-.67040736E-2</BSTAR><MEAN_MOTION_DOT>-.22008E-2</MEAN_MOTION_DOT><MEAN_MOTION_DDOT>0</MEAN_MOTION_DDOT></tleParameters></data></segment></body></omm>
<omm id="CCSDS_OMM_VERS" version="2.0">
<header><CREATION_DATE/><ORIGINATOR/></header><body><segment><metadata><OBJECT_NAME>KUIPER-00141</OBJECT_NAME><OBJECT_ID>2025-228V</OBJECT_ID><CENTER_NAME>EARTH</CENTER_NAME><REF_FRAME>TEME</REF_FRAME><TIME_SYSTEM>UTC</TIME_SYSTEM><MEAN_ELEMENT_THEORY>SGP4</MEAN_ELEMENT_THEORY></metadata><data><meanElements><EPOCH>2025-12-18T07:14:01.249440</EPOCH><MEAN_MOTION>15.36706636</MEAN_MOTION><ECCENTRICITY>.00063029</ECCENTRICITY><INCLINATION>51.8792</INCLINATION><RA_OF_ASC_NODE>353.5780</RA_OF_ASC_NODE><ARG_OF_PERICENTER>40.8203</ARG_OF_PERICENTER><MEAN_ANOMALY>319.3254</MEAN_ANOMALY></meanElements><tleParameters><EPHEMERIS_TYPE>0</EPHEMERIS_TYPE><CLASSIFICATION_TYPE>U</CLASSIFICATION_TYPE><NORAD_CAT_ID>65966</NORAD_CAT_ID><ELEMENT_SET_NO>999</ELEMENT_SET_NO><REV_AT_EPOCH>1127</REV_AT_EPOCH><BSTAR>.8152546E-3</BSTAR><MEAN_MOTION_DOT>.29427E-3</MEAN_MOTION_DOT><MEAN_MOTION_DDOT>0</MEAN_MOTION_DDOT></tleParameters></data></segment></body></omm>
<omm id="CCSDS_OMM_VERS" version="2.0">
<header><CREATION_DATE/><ORIGINATOR/></header><body><segment><metadata><OBJECT_NAME>KUIPER-00146</OBJECT_NAME><OBJECT_ID>2025-228W</OBJECT_ID><CENTER_NAME>EARTH</CENTER_NAME><REF_FRAME>TEME</REF_FRAME><TIME_SYSTEM>UTC</TIME_SYSTEM><MEAN_ELEMENT_THEORY>SGP4</MEAN_ELEMENT_THEORY></metadata><data><meanElements><EPOCH>2025-12-18T07:33:37.633824</EPOCH><MEAN_MOTION>15.35951432</MEAN_MOTION><ECCENTRICITY>.00077655</ECCENTRICITY><INCLINATION>51.8813</INCLINATION><RA_OF_ASC_NODE>353.6783</RA_OF_ASC_NODE><ARG_OF_PERICENTER>41.4797</ARG_OF_PERICENTER><MEAN_ANOMALY>318.6777</MEAN_ANOMALY></meanElements><tleParameters><EPHEMERIS_TYPE>0</EPHEMERIS_TYPE><CLASSIFICATION_TYPE>U</CLASSIFICATION_TYPE><NORAD_CAT_ID>65967</NORAD_CAT_ID><ELEMENT_SET_NO>999</ELEMENT_SET_NO><REV_AT_EPOCH>1127</REV_AT_EPOCH><BSTAR>.75418567E-3</BSTAR><MEAN_MOTION_DOT>.26532E-3</MEAN_MOTION_DOT><MEAN_MOTION_DDOT>0</MEAN_MOTION_DDOT></tleParameters></data></segment></body></omm>
<omm id="CCSDS_OMM_VERS" version="2.0">
<header><CREATION_DATE/><ORIGINATOR/></header><body><segment><metadata><OBJECT_NAME>KUIPER-00149</OBJECT_NAME><OBJECT_ID>2025-228X</OBJECT_ID><CENTER_NAME>EARTH</CENTER_NAME><REF_FRAME>TEME</REF_FRAME><TIME_SYSTEM>UTC</TIME_SYSTEM><MEAN_ELEMENT_THEORY>SGP4</MEAN_ELEMENT_THEORY></metadata><data><meanElements><EPOCH>2025-12-18T07:12:54.240192</EPOCH><MEAN_MOTION>15.36181857</MEAN_MOTION><ECCENTRICITY>.00055601</ECCENTRICITY><INCLINATION>51.8798</INCLINATION><RA_OF_ASC_NODE>353.5776</RA_OF_ASC_NODE><ARG_OF_PERICENTER>42.7394</ARG_OF_PERICENTER><MEAN_ANOMALY>317.4024</MEAN_ANOMALY></meanElements><tleParameters><EPHEMERIS_TYPE>0</EPHEMERIS_TYPE><CLASSIFICATION_TYPE>U</CLASSIFICATION_TYPE><NORAD_CAT_ID>65968</NORAD_CAT_ID><ELEMENT_SET_NO>999</ELEMENT_SET_NO><REV_AT_EPOCH>1127</REV_AT_EPOCH><BSTAR>.13080055E-2</BSTAR><MEAN_MOTION_DOT>.46752E-3</MEAN_MOTION_DOT><MEAN_MOTION_DDOT>0</MEAN_MOTION_DDOT></tleParameters></data></segment></body></omm>
<omm id="CCSDS_OMM_VERS" version="2.0">
<header><CREATION_DATE/><ORIGINATOR/></header><body><segment><metadata><OBJECT_NAME>KUIPER-00154</OBJECT_NAME><OBJECT_ID>2025-228Y</OBJECT_ID><CENTER_NAME>EARTH</CENTER_NAME><REF_FRAME>TEME</REF_FRAME><TIME_SYSTEM>UTC</TIME_SYSTEM><MEAN_ELEMENT_THEORY>SGP4</MEAN_ELEMENT_THEORY></metadata><data><meanElements><EPOCH>2025-12-18T10:26:46.089024</EPOCH><MEAN_MOTION>15.36130885</MEAN_MOTION><ECCENTRICITY>.00065663</ECCENTRICITY><INCLINATION>51.8802</INCLINATION><RA_OF_ASC_NODE>352.9776</RA_OF_ASC_NODE><ARG_OF_PERICENTER>27.6218</ARG_OF_PERICENTER><MEAN_ANOMALY>332.5116</MEAN_ANOMALY></meanElements><tleParameters><EPHEMERIS_TYPE>0</EPHEMERIS_TYPE><CLASSIFICATION_TYPE>U</CLASSIFICATION_TYPE><NORAD_CAT_ID>65969</NORAD_CAT_ID><ELEMENT_SET_NO>999</ELEMENT_SET_NO><REV_AT_EPOCH>1129</REV_AT_EPOCH><BSTAR>.78923508E-3</BSTAR><MEAN_MOTION_DOT>.27944E-3</MEAN_MOTION_DOT><MEAN_MOTION_DDOT>0</MEAN_MOTION_DDOT></tleParameters></data></segment></body></omm>

</ndm>
