KUIPER-00136            
1 65962U 25228R   25352.66667824 -.00015856  00000+0 -56155-3 0  9990
2 65962  51.8844 352.1792 0006435  44.1283 343.2817 15.27929162  1305
KUIPER-00137            
1 65963U 25228S   25352.44821547  .00333255  00000+0  88383-2 0  9992
2 65963  51.8800 353.0719 0009459  34.7765 325.3838 15.36425589 11293
KUIPER-00138            
1 65964U 25228T   25352.38699621  .00006778  00000+0  20042-3 0  9998
2 65964  51.8795 353.3999 0008138  45.9840 314.1815 15.36087894 11284
KUIPER-00140            
1 65965U 25228U   25352.59451330 -.00220080  00000+0 -67041-2 0  9990
2 65965  51.8802 352.5423 0009106  42.2743 317.8943 15.34268381 11311
KUIPER-00141            
1 65966U 25228V   25352.30140335  .00029427  00000+0  81525-3 0  9994
2 65966  51.8792 353.5780 0006302  40.8203 319.3254 15.36706636 11276
KUIPER-00146            
1 65967U 25228W   25352.31501891  .00026532  00000+0  75419-3 0  9993
2 65967  51.8813 353.6783 0007765  41.4797 318.6777 15.35951432 11271
KUIPER-00149            
1 65968U 25228X   25352.30062778  .00046752  00000+0  13080-2 0  9990
2 65968  51.8798 353.5776 0005560  42.7394 317.4024 15.36181857 11272
KUIPER-00154            
1 65969U 25228Y   25352.43525566  .00027944  00000+0  78924-3 0  9995
2 65969  51.8802 352.9776 0006566  27.6218 332.5116 15.36130885 11293
